[{"OBJECT_NAME":"STARLINK-31610","OBJECT_ID":"2024-068U","EPOCH":"2026-02-20T06:56:46.747680","MEAN_MOTION":15.27587964,"ECCENTRICITY":0.00012465,"INCLINATION":43,"RA_OF_ASC_NODE":132.6005,"ARG_OF_PERICENTER":269.7443,"MEAN_ANOMALY":90.3266,"EPHEMERIS_TYPE":0,"CLASSIFICATION_TYPE":"U","NORAD_CAT_ID":59473,"ELEMENT_SET_NO":999,"REV_AT_EPOCH":10586,"BSTAR":0.00010161569,"MEAN_MOTION_DOT":2.536e-5,"MEAN_MOTION_DDOT":0},{"OBJECT_NAME":"STARLINK-31581","OBJECT_ID":"2024-068V","EPOCH":"2026-02-20T05:22:11.282880","MEAN_MOTION":15.27588336,"ECCENTRICITY":0.00015958,"INCLINATION":43.0034,"RA_OF_ASC_NODE":126.0363,"ARG_OF_PERICENTER":211.2857,"MEAN_ANOMALY":148.7899,"EPHEMERIS_TYPE":0,"CLASSIFICATION_TYPE":"U","NORAD_CAT_ID":59474,"ELEMENT_SET_NO":999,"REV_AT_EPOCH":10593,"BSTAR":-0.0002769541,"MEAN_MOTION_DOT":-7.877e-5,"MEAN_MOTION_DDOT":0},{"OBJECT_NAME":"STARLINK-31566","OBJECT_ID":"2024-068W","EPOCH":"2026-02-20T05:28:10.540128","MEAN_MOTION":15.27579876,"ECCENTRICITY":0.00015358,"INCLINATION":43.0017,"RA_OF_ASC_NODE":132.9981,"ARG_OF_PERICENTER":257.6264,"MEAN_ANOMALY":102.4416,"EPHEMERIS_TYPE":0,"CLASSIFICATION_TYPE":"U","NORAD_CAT_ID":59475,"ELEMENT_SET_NO":999,"REV_AT_EPOCH":10585,"BSTAR":0.00010410457,"MEAN_MOTION_DOT":2.604e-5,"MEAN_MOTION_DDOT":0},{"OBJECT_NAME":"STARLINK-31515","OBJECT_ID":"2024-068X","EPOCH":"2026-02-20T05:39:17.123040","MEAN_MOTION":15.27579998,"ECCENTRICITY":0.00016257,"INCLINATION":43.0008,"RA_OF_ASC_NODE":133.0551,"ARG_OF_PERICENTER":241.9065,"MEAN_ANOMALY":118.1622,"EPHEMERIS_TYPE":0,"CLASSIFICATION_TYPE":"U","NORAD_CAT_ID":59476,"ELEMENT_SET_NO":999,"REV_AT_EPOCH":10585,"BSTAR":3.1165222e-5,"MEAN_MOTION_DOT":5.95e-6,"MEAN_MOTION_DDOT":0},{"OBJECT_NAME":"STARLINK-31531","OBJECT_ID":"2024-068Y","EPOCH":"2026-02-20T01:37:51.810528","MEAN_MOTION":15.27563463,"ECCENTRICITY":0.00016479,"INCLINATION":43.0074,"RA_OF_ASC_NODE":78.8812,"ARG_OF_PERICENTER":225.0754,"MEAN_ANOMALY":134.9964,"EPHEMERIS_TYPE":0,"CLASSIFICATION_TYPE":"U","NORAD_CAT_ID":59477,"ELEMENT_SET_NO":999,"REV_AT_EPOCH":10645,"BSTAR":-5.5770614e-5,"MEAN_MOTION_DOT":-1.796e-5,"MEAN_MOTION_DDOT":0},{"OBJECT_NAME":"STARLINK-31753","OBJECT_ID":"2024-071A","EPOCH":"2026-02-20T02:14:52.530720","MEAN_MOTION":15.27583383,"ECCENTRICITY":8.802e-5,"INCLINATION":42.9981,"RA_OF_ASC_NODE":79.1898,"ARG_OF_PERICENTER":240.3375,"MEAN_ANOMALY":119.7389,"EPHEMERIS_TYPE":0,"CLASSIFICATION_TYPE":"U","NORAD_CAT_ID":59484,"ELEMENT_SET_NO":999,"REV_AT_EPOCH":10551,"BSTAR":-9.2667127e-5,"MEAN_MOTION_DOT":-2.811e-5,"MEAN_MOTION_DDOT":0},{"OBJECT_NAME":"STARLINK-31733","OBJECT_ID":"2024-071C","EPOCH":"2026-02-20T03:06:29.637216","MEAN_MOTION":15.27573866,"ECCENTRICITY":0.00011266,"INCLINATION":43.0035,"RA_OF_ASC_NODE":78.6017,"ARG_OF_PERICENTER":259.7514,"MEAN_ANOMALY":100.3211,"EPHEMERIS_TYPE":0,"CLASSIFICATION_TYPE":"U","NORAD_CAT_ID":59486,"ELEMENT_SET_NO":999,"REV_AT_EPOCH":10552,"BSTAR":-4.017112e-6,"MEAN_MOTION_DOT":-3.73e-6,"MEAN_MOTION_DDOT":0},{"OBJECT_NAME":"STARLINK-31657","OBJECT_ID":"2024-071D","EPOCH":"2026-02-20T01:56:23.386272","MEAN_MOTION":15.2756249,"ECCENTRICITY":0.00012661,"INCLINATION":43.0024,"RA_OF_ASC_NODE":79.0967,"ARG_OF_PERICENTER":264.4091,"MEAN_ANOMALY":95.6616,"EPHEMERIS_TYPE":0,"CLASSIFICATION_TYPE":"U","NORAD_CAT_ID":59487,"ELEMENT_SET_NO":999,"REV_AT_EPOCH":10551,"BSTAR":0.00016140417,"MEAN_MOTION_DOT":4.18e-5,"MEAN_MOTION_DDOT":0},{"OBJECT_NAME":"STARLINK-31754","OBJECT_ID":"2024-071E","EPOCH":"2026-02-20T03:16:22.763712","MEAN_MOTION":15.27592925,"ECCENTRICITY":0.00010747,"INCLINATION":43.0028,"RA_OF_ASC_NODE":86.442,"ARG_OF_PERICENTER":269.0426,"MEAN_ANOMALY":91.0303,"EPHEMERIS_TYPE":0,"CLASSIFICATION_TYPE":"U","NORAD_CAT_ID":59488,"ELEMENT_SET_NO":999,"REV_AT_EPOCH":10543,"BSTAR":0.00010789779,"MEAN_MOTION_DOT":2.709e-5,"MEAN_MOTION_DDOT":0},{"OBJECT_NAME":"STARLINK-31638","OBJECT_ID":"2024-071F","EPOCH":"2026-02-20T03:28:41.521728","MEAN_MOTION":15.27576688,"ECCENTRICITY":0.00012325,"INCLINATION":43.0003,"RA_OF_ASC_NODE":78.7126,"ARG_OF_PERICENTER":256.0352,"MEAN_ANOMALY":104.0363,"EPHEMERIS_TYPE":0,"CLASSIFICATION_TYPE":"U","NORAD_CAT_ID":59489,"ELEMENT_SET_NO":999,"REV_AT_EPOCH":10552,"BSTAR":4.5972048e-5,"MEAN_MOTION_DOT":1.003e-5,"MEAN_MOTION_DDOT":0},{"OBJECT_NAME":"STARLINK-31670","OBJECT_ID":"2024-071G","EPOCH":"2026-02-20T02:22:14.856384","MEAN_MOTION":15.27587883,"ECCENTRICITY":0.00014246,"INCLINATION":43.0029,"RA_OF_ASC_NODE":90.4982,"ARG_OF_PERICENTER":262.5741,"MEAN_ANOMALY":97.4949,"EPHEMERIS_TYPE":0,"CLASSIFICATION_TYPE":"U","NORAD_CAT_ID":59490,"ELEMENT_SET_NO":999,"REV_AT_EPOCH":10538,"BSTAR":5.2496355e-5,"MEAN_MOTION_DOT":1.183e-5,"MEAN_MOTION_DDOT":0},{"OBJECT_NAME":"STARLINK-31712","OBJECT_ID":"2024-071H","EPOCH":"2026-02-20T03:58:15.858912","MEAN_MOTION":15.27582086,"ECCENTRICITY":0.00013144,"INCLINATION":43.0046,"RA_OF_ASC_NODE":90.1214,"ARG_OF_PERICENTER":261.5672,"MEAN_ANOMALY":98.503,"EPHEMERIS_TYPE":0,"CLASSIFICATION_TYPE":"U","NORAD_CAT_ID":59491,"ELEMENT_SET_NO":999,"REV_AT_EPOCH":10539,"BSTAR":5.2338775e-5,"MEAN_MOTION_DOT":1.178e-5,"MEAN_MOTION_DDOT":0},{"OBJECT_NAME":"STARLINK-31684","OBJECT_ID":"2024-071J","EPOCH":"2026-02-20T01:47:48.321312","MEAN_MOTION":15.27575208,"ECCENTRICITY":0.00016552,"INCLINATION":43.0046,"RA_OF_ASC_NODE":86.84,"ARG_OF_PERICENTER":276.1063,"MEAN_ANOMALY":83.96,"EPHEMERIS_TYPE":0,"CLASSIFICATION_TYPE":"U","NORAD_CAT_ID":59492,"ELEMENT_SET_NO":999,"REV_AT_EPOCH":10542,"BSTAR":-1.7204626e-5,"MEAN_MOTION_DOT":-7.36e-6,"MEAN_MOTION_DDOT":0},{"OBJECT_NAME":"STARLINK-31678","OBJECT_ID":"2024-071K","EPOCH":"2026-02-19T02:26:33.127584","MEAN_MOTION":15.27586025,"ECCENTRICITY":0.00013771,"INCLINATION":43.0026,"RA_OF_ASC_NODE":92.4311,"ARG_OF_PERICENTER":283.9929,"MEAN_ANOMALY":76.077,"EPHEMERIS_TYPE":0,"CLASSIFICATION_TYPE":"U","NORAD_CAT_ID":59493,"ELEMENT_SET_NO":999,"REV_AT_EPOCH":10409,"BSTAR":-2.5057893e-5,"MEAN_MOTION_DOT":-9.52e-6,"MEAN_MOTION_DDOT":0},{"OBJECT_NAME":"STARLINK-31744","OBJECT_ID":"2024-071L","EPOCH":"2026-02-20T03:27:30.404160","MEAN_MOTION":15.27580736,"ECCENTRICITY":0.00011449,"INCLINATION":43.0027,"RA_OF_ASC_NODE":86.4941,"ARG_OF_PERICENTER":233.8222,"MEAN_ANOMALY":126.2524,"EPHEMERIS_TYPE":0,"CLASSIFICATION_TYPE":"U","NORAD_CAT_ID":59494,"ELEMENT_SET_NO":999,"REV_AT_EPOCH":10543,"BSTAR":6.7033411e-5,"MEAN_MOTION_DOT":1.583e-5,"MEAN_MOTION_DDOT":0},{"OBJECT_NAME":"STARLINK-31719","OBJECT_ID":"2024-071M","EPOCH":"2026-02-20T02:33:23.918112","MEAN_MOTION":15.27574649,"ECCENTRICITY":0.00011959,"INCLINATION":43.0004,"RA_OF_ASC_NODE":79.2943,"ARG_OF_PERICENTER":281.3991,"MEAN_ANOMALY":78.6726,"EPHEMERIS_TYPE":0,"CLASSIFICATION_TYPE":"U","NORAD_CAT_ID":59495,"ELEMENT_SET_NO":999,"REV_AT_EPOCH":10551,"BSTAR":7.358218e-6,"MEAN_MOTION_DOT":-6.0e-7,"MEAN_MOTION_DDOT":0}]
