STARLINK-31610          
1 59473U 24068U   26051.28942995  .00002536  00000+0  10162-3 0  9998
2 59473  43.0000 132.6005 0001246 269.7443  90.3266 15.27587964105862
STARLINK-31581          
1 59474U 24068V   26051.22374170 -.00007877  00000+0 -27695-3 0  9991
2 59474  43.0034 126.0363 0001595 211.2857 148.7899 15.27588336105934
STARLINK-31566          
1 59475U 24068W   26051.22789977  .00002604  00000+0  10410-3 0  9995
2 59475  43.0017 132.9981 0001535 257.6264 102.4416 15.27579876105850
STARLINK-31515          
1 59476U 24068X   26051.23561485  .00000595  00000+0  31165-4 0  9997
2 59476  43.0008 133.0551 0001625 241.9065 118.1622 15.27579998105859
STARLINK-31531          
1 59477U 24068Y   26051.06796077 -.00001796  00000+0 -55771-4 0  9991
2 59477  43.0074  78.8812 0001647 225.0754 134.9964 15.27563463106453
STARLINK-31753          
1 59484U 24071A   26051.09366355 -.00002811  00000+0 -92667-4 0  9992
2 59484  42.9981  79.1898 0000880 240.3375 119.7389 15.27583383105512
STARLINK-31733          
1 59486U 24071C   26051.12950969 -.00000373  00000+0 -40171-5 0  9993
2 59486  43.0035  78.6017 0001126 259.7514 100.3211 15.27573866105522
STARLINK-31657          
1 59487U 24071D   26051.08082623  .00004180  00000+0  16140-3 0  9997
2 59487  43.0024  79.0967 0001266 264.4091  95.6616 15.27562490105513
STARLINK-31754          
1 59488U 24071E   26051.13637458  .00002709  00000+0  10790-3 0  9996
2 59488  43.0028  86.4420 0001074 269.0426  91.0303 15.27592925105434
STARLINK-31638          
1 59489U 24071F   26051.14492502  .00001003  00000+0  45972-4 0  9994
2 59489  43.0003  78.7126 0001232 256.0352 104.0363 15.27576688105524
STARLINK-31670          
1 59490U 24071G   26051.09878306  .00001183  00000+0  52496-4 0  9998
2 59490  43.0029  90.4982 0001424 262.5741  97.4949 15.27587883105380
STARLINK-31712          
1 59491U 24071H   26051.16546133  .00001178  00000+0  52339-4 0  9997
2 59491  43.0046  90.1214 0001314 261.5672  98.5030 15.27582086105399
STARLINK-31684          
1 59492U 24071J   26051.07486483 -.00000736  00000+0 -17205-4 0  9993
2 59492  43.0046  86.8400 0001655 276.1063  83.9600 15.27575208105426
STARLINK-31678          
1 59493U 24071K   26050.10177231 -.00000952  00000+0 -25058-4 0  9990
2 59493  43.0026  92.4311 0001377 283.9929  76.0770 15.27586025104099
STARLINK-31744          
1 59494U 24071L   26051.14410190  .00001583  00000+0  67033-4 0  9998
2 59494  43.0027  86.4941 0001144 233.8222 126.2524 15.27580736105432
STARLINK-31719          
1 59495U 24071M   26051.10652683 -.00000060  00000+0  73582-5 0  9997
2 59495  43.0004  79.2943 0001195 281.3991  78.6726 15.27574649105516
